#dP2022  7 23  0  0  0.00000000      96 __u+U ITR14 FIT  IAC
## 2219 518400.00000000   900.00000000 59783 0.0000000000000
+  127   C01C02C03C04C05C06C07C08C09C10C11C12C13C14C16C19C20
+        C21C22C23C24C25C26C27C28C29C30C32C33C34C35C36C37C38
+        C39C40C41C42C43C44C45C46C59C60E01E02E03E04E05E07E08
+        E09E10E11E12E13E14E15E18E19E21E24E25E26E27E30E31E33
+        E34E36G01G02G03G04G05G06G07G08G09G10G11G12G13G14G15
+        G16G17G18G19G20G21G22G23G24G25G26G27G28G29G30G31G32
+        J02J03J07R01R02R03R04R05R06R07R08R09R10R11R12R13R14
+        R15R17R18R19R20R21R23R24  0  0  0  0  0  0  0  0  0
++        17 16 17 17 17  9  9  9  9  9  8  9  8 11  9  7  7
++         7  7  7  7  7  7  7  7  7  7  7  7  7  7  7  7  8
++         8  8  7  7  7  7  8  7  0 17  4  4  5  4  5  4  4
++         4  5  4  4  4  4  4  4  4  4  5  5  4  4  4  5  5
++         4  5  3  4  4  4  4  3  4  4  4  3  3  3  4  4  4
++         4  4  4  4  4  4  4  3  4  4  4  4  4  4  4  4  3
++         8  8 17  7  5  5  6  6 15  6  6  6 15  6  6  7  6
++         6  6  6  7  7  6 15  6  0  0  0  0  0  0  0  0  0
%c M  cc GPS ccc cccc cccc cccc cccc ccccc ccccc ccccc ccccc
%c cc cc ccc ccc cccc cccc cccc cccc ccccc ccccc ccccc ccccc
%f  0.0000000  0.000000000  0.00000000000  0.000000000000000
%f  0.0000000  0.000000000  0.00000000000  0.000000000000000
%i    0    0    0    0      0      0      0      0         0
%i    0    0    0    0      0      0      0      0         0
/* INFORMATION & ANALYSIS CENTER (IAC)            RAPID DATA
/* S/V CLOCKS ARE ALIGNED TO GNSS TIME                      
/* G:C1WC2W R:C1PC2P E:C1XC5X C:C2IC6I J:C1CC2S             
/* PCV:IGS14_2215 OL/AL:FES2004  NONE     YN ORB:CoN CLK:CoN
*  2022 07 23 14 15  0.00000000
PC01 -34372.739030  24428.919822   -477.511953    452.449878
PC02   4479.269150  41957.938380    654.083630   -224.713087
PC03 -14799.992480  39514.788401   -357.991635   -472.270225
PC04 -39622.278162  14446.722141   -682.203208   -274.898149
PC05  21916.822967  36075.892400    700.004442   -127.455142
PC06  -5728.134667  24168.142940  34099.099342    454.991227
PC07 -16707.997376  35583.202772 -15422.821121   -467.656287
PC08  -1873.569620  38759.080008 -16270.467268    415.158187
PC09   2735.938066  26813.592742  32910.364850   -918.748139
PC10 -11190.023795  35522.746190 -19945.790978    115.836598
PC11 -23617.611794   2664.501734 -14595.346104    491.780377
PC12 -26219.727435  -9349.844973   2157.198811   -570.055779
PC13   1729.237225  40391.964668 -11338.153945     32.163541
PC14 -22591.896344  14159.319591  -8326.715974    554.567122
PC16  -8405.098098  22731.476309  34690.993082    143.331447
PC19  19436.648704 -19983.751685   -925.206653   -271.662930
PC20  22297.542581  -7485.434825  15002.326663   -964.102508
PC21 -11934.843386 -10373.825654 -22980.792431    -40.115667
PC22   5189.017475 -21451.063670 -17062.333525   -963.080539
PC23   2510.591221  27179.247934   5823.539461   -949.914713
PC24 -17104.502488  -3970.572866  21692.066597   -967.679812
PC25  -9440.571769  17788.347631  19307.339969   -703.454102
PC26 -14629.492248 -20533.882875  11990.182525    705.477695
PC27  21856.595480  13937.341852 -10369.859362    758.650406
PC28   4696.244200  17001.217919 -21624.330387     93.310501
PC29  15858.302921 -10581.141541  20367.426233    585.554206
PC30  27077.314198   2300.025061   6375.929414    501.384182
PC32  11942.138784  10391.932034  22993.069297    -51.869844
PC33 -19365.756785  20090.436538    863.931875   -234.398410
PC34 -26856.307708  -1548.247948  -7404.888785   -352.442122
PC35  -3875.418586 -16785.186566  21935.823165    379.011227
PC36  10147.047050 -17094.559773 -19554.510264   -971.710454
PC37  13636.158666  21711.048422 -10975.657536   -920.612798
PC38  -7293.864250  35011.238042 -22174.925332     12.113354
PC39 -14331.291780  20470.948843  33954.154602     -0.117461
PC40 -24278.176444  31495.235171 -14326.071541     -1.059178
PC41  -5554.176697  21667.337887  16738.147919   -104.374499
PC42 -22084.334990   6576.839925 -15717.290080   -952.629552
PC43 -16576.655337  10236.455973 -19985.236976      4.544896
PC44 -22187.601014 -13264.656182  10462.876951    733.289844
PC45  -2801.638032 -27222.364898  -5503.837676    816.344671
PC46  16794.529952   2072.876286 -22175.503948   -447.361114
PC59      0.000000      0.000000      0.000000 999999.999999
PC60   7264.266412  41521.049776  -1320.305411     -0.257622
PE01  12281.746539 -26047.529461  -6838.603785   -520.694545
PE02 -12194.955160  26124.539114   6686.114718    313.771323
PE03 -16799.570175  17013.597764  17460.141548   -581.960609
PE04  -4470.923017 -16446.414544 -24192.745907  -1077.659750
PE05 -28615.543242   7577.062534    313.761236   -160.297182
PE07  23610.972082   6130.382212  16765.410905   -690.086444
PE08   4659.385155  16253.190506  24298.782837   -568.618734
PE09 -23622.129787  -5949.458943 -16822.759139   -597.601610
PE10 -19112.368609 -22343.682079   3440.036886   -502.492895
PE11 -23175.548344 -17049.333178  -6954.285994   2906.451914
PE12 -12095.165220 -23893.239242  12585.691584    -77.114811
PE13  23033.240390  17519.553939   6221.560162    429.940026
PE14 -29568.875247    666.261143   2359.479041  -1770.719467
PE15  12040.337380  23836.660494 -12770.671575    731.471916
PE18  22742.678141   8643.256733 -12353.831013  -1180.445008
PE19  19124.942067 -16182.358488 -15756.298207  -5012.576030
PE21  17872.287175 -11147.252772 -20790.710477   -747.578013
PE24 -13142.740409 -12395.263654  23444.088343   -740.689769
PE25 -17897.096349  10838.487096  20949.199923   -582.056052
PE26  20054.646321     43.356400  21764.018632  -1410.370326
PE27  13675.750307  11153.084860 -23755.568869   -351.447329
PE30    749.648370  27067.660965 -11949.803139   -695.550885
PE31  -1486.263609 -26683.956102  12735.630809   -500.407773
PE33   5992.798036 -16061.088514  24125.736914   -454.449533
PE34  -5808.124255  16203.816883 -24091.575462   -487.288173
PE36 -20417.716647   -964.893694 -21413.650721   -406.292655
PG01  19888.744035  10773.232224  13889.287230    315.843771
PG02 -15163.582725 -21281.276108   4942.796712   -650.841775
PG03  15164.647259   1515.322054  21619.460600   -314.627170
PG04  25473.797008   2252.997913   7352.199859   -142.410779
PG05  -9102.035258 -15554.870609 -19637.801601    -90.196290
PG06  -1720.289325 -20353.747320  16995.661185    396.712416
PG07  15075.563478  -5033.355020 -20930.634527    318.161187
PG08  21518.809658   6498.677394 -14456.143386    -77.407442
PG09  25450.338808  -6846.803755  -3527.627390   -316.090502
PG10 -11409.936639  23598.753300  -2971.990186   -502.172573
PG11 -11370.359087 -23249.429715   6026.402103    -10.397071
PG12 -14037.704707  -5176.851127  21677.459640   -250.899164
PG13 -13019.328469 -13101.102044 -19310.875593    353.997580
PG14  13279.600391 -22512.574270  -4391.834589   -111.390908
PG15 -22082.218446  -4967.076969 -14560.265645    -43.135479
PG16   3127.312235  20054.349836 -17156.697395   -516.924964
PG17  15572.552570 -13158.822969  17484.139635    640.185356
PG18 -14459.512537   5404.678336 -21638.867491    104.573820
PG19   6136.987094 -14502.476177  21095.431263    187.527993
PG20  -2356.358991 -24429.797003 -10433.506447    500.831568
PG21  20907.779214  16081.412020   6092.606929    160.976011
PG22  -2829.628869  15442.158748  21826.476756    297.261440
PG23 -15596.110359  17163.505626 -12855.265046    -34.148504
PG24 -21457.344515 -12624.934270   9514.042790    189.274577
PG25 -17009.794026   9526.852907  17626.378854    352.507114
PG26  -2155.165041  25122.922002  -7911.047394    219.820448
PG27   9673.512259  13188.865228 -21218.481203    220.927322
PG28   8395.368741 -24847.592602   5424.107051    336.743863
PG29 -25943.580224   4487.556588  -3861.885722   -536.212081
PG30   7231.173638 -15236.096036 -20375.029509   -534.595035
PG31   3215.474785  21542.845047  14739.716743   -186.866038
PG32 -12220.213455  14938.702341  18311.308674   -183.928067
PJ02 -30649.463868  25638.548830  18537.454511     -2.062200
PJ03 -25658.065242  17880.620832 -23687.604483     -0.234653
PJ07 -25398.542546  33660.840887     25.722739     -0.020793
PR01  12218.715167 -17086.294117 -14460.726156     11.944855
PR02  -5426.984859  -9390.791007 -23045.572322    524.969005
PR03 -18891.930540   3080.493230 -16786.082438     60.692698
PR04 -21571.738858  13538.434474  -1312.902057    151.606170
PR05 -12469.064011  16522.724889  14901.111763     96.700502
PR06   6886.179249   8637.207994  22982.092404    -60.638664
PR07  19317.575577  -3604.004644  16329.263714     38.270386
PR08  21541.238834 -13630.345219   1306.119352    -66.359521
PR09   7199.621281  22112.539418 -10551.440751     67.310890
PR10  10987.697448   8521.362540 -21369.857091    -84.452108
PR11   9050.818371 -11279.308235 -20993.050801     32.502684
PR12   1582.688934 -24475.392437  -7002.315241     19.455605
PR13  -6419.803883 -22833.392523   9372.927817    -24.914211
PR14 -11167.078032  -6925.111710  21876.905866     24.781323
PR15  -9043.276278  12128.149850  20565.186634     94.549238
PR17 -23332.331045  -9212.263482  -4753.284454    546.012725
PR18 -17083.298520    832.262345 -18897.486300     34.045947
PR19  -3483.509340   9860.594933 -23271.954050   -197.357979
PR20  15673.732372  15211.036756 -13206.138701    -75.146115
PR21  23179.528896   8534.851250   6295.152776   -319.716777
PR23  -2307.355224 -12336.676605  22192.788230    -48.759384
PR24 -16433.505328 -14982.612237  12523.563240    105.054068
EOF
